CZ-4B R/B               
1 28059U 03049C   17248.22623487  .00000036  00000-0  20638-4 0  9998
2 28059  98.5491 135.7195 0050342   4.6224 104.9052 14.52495964735291
CZ-2C R/B               
1 28222U 04012C   17248.06824167  .00000531  00000-0  36617-4 0  9995
2 28222  97.5324 203.0919 0046609 272.0848 153.9194 15.09336713732662
SL-16 R/B               
1 28353U 04021B   17247.65183247 -.00000122  00000-0 -39016-4 0  9995
2 28353  71.0000 271.8153 0002693  62.8846 297.2550 14.14203368683382
CZ-2C R/B               
1 28480U 04046B   17247.91115267 -.00000002  00000-0  15147-4 0  9994
2 28480  98.1966 338.9679 0141731 349.8107 121.6058 14.25645996665570
ARIANE 5 R/B            
1 28499U 04049H   17248.24402100  .00000096  00000-0  19507-4 0  9995
2 28499  98.0760 331.7135 0091480 317.7591 101.8743 14.79834853685838
CZ-2D R/B               
1 28738U 05024B   17247.72475923  .00000811  00000-0  51980-4 0  9996
2 28738  97.4910 283.0191 0013904  91.2998 268.9825 15.11226009667803
SUZAKU (ASTRO-EII)      
1 28773U 05025A   17247.93353045  .00001581  00000-0  75970-4 0  9999
2 28773  31.3824 139.2370 0004465  66.6594 293.4522 15.15963302669485
ALOS (DAICHI)           
1 28931U 06002A   17248.19317147  .00000198  00000-0  47880-4 0  9995
2 28931  97.8396 271.5313 0002560  74.3657 285.7828 14.62385497619155
H-2A R/B                
1 28932U 06002B   17248.20763760  .00000867  00000-0  86431-4 0  9992
2 28932  98.2057 174.3182 0091051  49.8510  80.1963 14.91435946629736
AKARI (ASTRO-F)         
1 28939U 06005A   17248.54592542  .00004307  00000-0  13269-3 0  9998
2 28939  98.2455  98.3927 0104376 267.7191  91.2092 15.29070869625393
RESURS-DK 1             
1 29228U 06021A   17248.48060489  .00000277  00000-0  28381-4 0  9995
2 29228  69.9338 253.7897 0007096 239.3974 120.6487 15.02193395620153
GENESIS 1               
1 29252U 06029A   17247.86241688  .00000891  00000-0  55070-4 0  9990
2 29252  64.5068  25.2780 0023377 312.9327  46.9834 15.16886505613834
CZ-4B R/B               
1 29507U 06046C   17248.11556832  .00000838  00000-0  70633-4 0  9994
2 29507  97.7930 255.7348 0048431 331.8863  27.9746 15.00147923593022
CZ-2C R/B               
1 31114U 07010B   17248.21571626 -.00000003  00000-0  18015-4 0  9993
2 31114  98.3890 146.5141 0059546 344.4750  15.4599 14.19250057538864
COSMO-SKYMED 1          
1 31598U 07023A   17248.10597947  .00000036  00000-0  11042-4 0  9993
2 31598  97.8883  70.6573 0001566  80.6422 279.4941 14.82153434554284
GENESIS 2               
1 31789U 07028A   17247.87965214  .00000745  00000-0  48706-4 0  9993
2 31789  64.5039  63.4450 0021342 218.3236 141.6370 15.16150881560993
COSMOS 2428             
1 31792U 07029A   17248.52198087  .00000322  00000-0  20051-3 0  9990
2 31792  70.9235 243.4675 0008800 175.9934 184.1258 14.12323436525410
SL-16 R/B               
1 31793U 07029B   17248.21910308 -.00000239  00000-0 -99759-4 0  9996
2 31793  70.9736 221.0531 0002292 279.1107 169.9066 14.14382391526032
CZ-4B DEB               
1 33411U 08053D   17247.91698859  .00098429  00000-0  76914-3 0  9996
2 33411  97.3968 300.9020 0001426  56.1515 303.9883 15.71341735488658
KORONAS-FOTON           
1 33504U 09003A   17247.82983321  .00000813  00000-0  41791-4 0  9992
2 33504  82.4445 153.8469 0018969 190.1009 169.9845 15.14896167473434
TIANGONG 1              
1 37820U 11053A   17248.49658872  .00034438  00000-0  15395-3 0  9999
2 37820  42.7584  66.7784 0020771 290.6959  96.6439 15.83207151340688
H-2A R/B                
1 38341U 12025E   17247.82325807  .00000232  00000-0  35002-4 0  9996
2 38341  98.4306 329.2810 0054666 261.9877  97.5130 14.83609100286680
CUSAT 2 & FALCON 9 R/B  
1 39271U 13055G   17248.21807139  .00011269  00000-0  29108-3 0  9991
2 39271  80.9656 272.4209 0628274 325.4524  30.7283 14.38244997204121
ALOS-2                  
1 39766U 14029A   17248.19226283  .00000196  00000-0  33145-4 0  9998
2 39766  97.9217 344.3695 0001550  85.4751 274.6665 14.79473416177437
SL-27 R/B               
1 40354U 14084B   17248.21718296  .00002151  00000-0  56652-4 0  9998
2 40354  74.7412 327.8731 0040880 308.7858  50.9703 15.38357920152165
ASTRO-H (HITOMI)        
1 41337U 16012A   17247.66683561  .00000409  00000-0  26549-4 0  9993
2 41337  31.0067 335.1501 0012377 105.5359 254.6643 14.98340583 84853
TIANGONG-2              
1 41765U 16057A   17248.24341435  .00007225  00000-0  96546-4 0  9990
2 41765  42.7819 239.3912 0001599  59.9074 119.7693 15.58546764 55471
TIANZHOU 1              
1 42684U 17021A   17245.93081818  .00004001  00000-0  56395-4 0  9999
2 42684  42.7838 253.3084 0001762 351.7843  85.0951 15.58159401 21145
